start=new Date('2023-04-24T00:00:00.000Z').valueOf();
sats=[{"GP_ID":"230661935","CLASSIFICATION_TYPE":"U","MEAN_MOTION_DOT":"0.00036455","ARG_OF_PERICENTER":"96.6625","ECCENTRICITY":"0.00009070","CENTER_NAME":"EARTH","NORAD_CAT_ID":"52363","BSTAR":"0.00229580000000","OBJECT_TYPE":"PAYLOAD","APOAPSIS":"540.323","OBJECT_ID":"2022-045AJ","DECAY_DATE":null,"SEMIMAJOR_AXIS":"6917.830","RA_OF_ASC_NODE":"236.5880","MEAN_MOTION_DDOT":"0.0000000000000","OBJECT_NAME":"STARLINK-3830","FILE":"3892831","EPHEMERIS_TYPE":"0","MEAN_ANOMALY":"263.4471","TLE_LINE1":"1 52363U 22045AJ  23113.83435034  .00036455  00000-0  22958-2 0  9993","INCLINATION":"53.2158","SITE":"AFETR","PERIAPSIS":"539.068","PERIOD":"95.437","MEAN_MOTION":"15.08856409","MEAN_ELEMENT_THEORY":"SGP4","REV_AT_EPOCH":"5714","TIME_SYSTEM":"UTC","ELEMENT_SET_NO":"999","TLE_LINE2":"2 52363  53.2158 236.5880 0000907  96.6625 263.4471 15.08856409 57147","EPOCH":"2023-04-23T20:01:27.869376","REF_FRAME":"TEME","COUNTRY_CODE":"US","LAUNCH_DATE":"2022-04-29","RCS_SIZE":"LARGE"},{"MEAN_ELEMENT_THEORY":"SGP4","REV_AT_EPOCH":"5727","TIME_SYSTEM":"UTC","REF_FRAME":"TEME","ELEMENT_SET_NO":"999","EPOCH":"2023-04-23T19:20:22.226784","TLE_LINE2":"2 52364  53.2153 226.6345 0000830 183.1989 176.8997 15.08848811 57271","RCS_SIZE":"LARGE","LAUNCH_DATE":"2022-04-29","COUNTRY_CODE":"US","CENTER_NAME":"EARTH","ECCENTRICITY":"0.00008300","NORAD_CAT_ID":"52364","BSTAR":"0.00094753000000","GP_ID":"230660188","CLASSIFICATION_TYPE":"U","MEAN_MOTION_DOT":"0.00014828","ARG_OF_PERICENTER":"183.1989","SEMIMAJOR_AXIS":"6917.853","RA_OF_ASC_NODE":"226.6345","APOAPSIS":"540.293","OBJECT_TYPE":"PAYLOAD","DECAY_DATE":null,"OBJECT_ID":"2022-045AK","MEAN_ANOMALY":"176.8997","TLE_LINE1":"1 52364U 22045AK  23113.80581281  .00014828  00000-0  94753-3 0  9990","INCLINATION":"53.2153","SITE":"AFETR","PERIAPSIS":"539.144","MEAN_MOTION_DDOT":"0.0000000000000","FILE":"3892831","EPHEMERIS_TYPE":"0","OBJECT_NAME":"STARLINK-3820","PERIOD":"95.437","MEAN_MOTION":"15.08848811"},{"PERIOD":"95.438","MEAN_MOTION":"15.08833841","MEAN_MOTION_DDOT":"0.0000000000000","FILE":"3892831","OBJECT_NAME":"STARLINK-3874","EPHEMERIS_TYPE":"0","MEAN_ANOMALY":"278.7957","SITE":"AFETR","TLE_LINE1":"1 52365U 22045AL  23113.69544206 -.00000282  00000-0  35291-6 0  9999","INCLINATION":"53.2149","PERIAPSIS":"538.814","OBJECT_TYPE":"PAYLOAD","APOAPSIS":"540.715","OBJECT_ID":"2022-045AL","DECAY_DATE":null,"SEMIMAJOR_AXIS":"6917.899","RA_OF_ASC_NODE":"227.2163","GP_ID":"230660938","CLASSIFICATION_TYPE":"U","MEAN_MOTION_DOT":"-0.00000282","ARG_OF_PERICENTER":"81.3191","ECCENTRICITY":"0.00013740","CENTER_NAME":"EARTH","NORAD_CAT_ID":"52365","BSTAR":"0.00000035291000","COUNTRY_CODE":"US","LAUNCH_DATE":"2022-04-29","RCS_SIZE":"LARGE","ELEMENT_SET_NO":"999","EPOCH":"2023-04-23T16:41:26.193984","TLE_LINE2":"2 52365  53.2149 227.2163 0001374  81.3191 278.7957 15.08833841 57253","REF_FRAME":"TEME","TIME_SYSTEM":"UTC","REV_AT_EPOCH":"5725","MEAN_ELEMENT_THEORY":"SGP4"},{"PERIOD":"95.438","MEAN_MOTION":"15.08832189","MEAN_ANOMALY":"307.9786","SITE":"AFETR","TLE_LINE1":"1 52366U 22045AM  23113.67703547 -.00001735  00000-0 -90931-4 0  9998","INCLINATION":"53.2149","PERIAPSIS":"538.498","MEAN_MOTION_DDOT":"0.0000000000000","EPHEMERIS_TYPE":"0","FILE":"3892831","OBJECT_NAME":"STARLINK-3808","SEMIMAJOR_AXIS":"6917.904","RA_OF_ASC_NODE":"227.3044","OBJECT_TYPE":"PAYLOAD","APOAPSIS":"541.040","OBJECT_ID":"2022-045AM","DECAY_DATE":null,"ECCENTRICITY":"0.00018370","CENTER_NAME":"EARTH","NORAD_CAT_ID":"52366","BSTAR":"-0.00009093100000","GP_ID":"230661189","CLASSIFICATION_TYPE":"U","MEAN_MOTION_DOT":"-0.00001735","ARG_OF_PERICENTER":"52.1372","RCS_SIZE":"LARGE","LAUNCH_DATE":"2022-04-29","COUNTRY_CODE":"US","REF_FRAME":"TEME","ELEMENT_SET_NO":"999","EPOCH":"2023-04-23T16:14:55.864608","TLE_LINE2":"2 52366  53.2149 227.3044 0001837  52.1372 307.9786 15.08832189 57253","TIME_SYSTEM":"UTC","REV_AT_EPOCH":"5725","MEAN_ELEMENT_THEORY":"SGP4"},{"EPOCH":"2023-04-23T11:39:22.741632","TLE_LINE2":"2 52367  53.2170 228.1599 0001360  93.3271 266.7877 15.08832209 57221","ELEMENT_SET_NO":"999","REF_FRAME":"TEME","COUNTRY_CODE":"US","LAUNCH_DATE":"2022-04-29","RCS_SIZE":"LARGE","MEAN_ELEMENT_THEORY":"SGP4","TIME_SYSTEM":"UTC","REV_AT_EPOCH":"5722","FILE":"3892831","EPHEMERIS_TYPE":"0","OBJECT_NAME":"STARLINK-3817","MEAN_MOTION_DDOT":"0.0000000000000","PERIAPSIS":"538.828","TLE_LINE1":"1 52367U 22045AN  23113.48567988 -.00000377  00000-0 -56067-5 0  9999","INCLINATION":"53.2170","SITE":"AFETR","MEAN_ANOMALY":"266.7877","MEAN_MOTION":"15.08832209","PERIOD":"95.438","MEAN_MOTION_DOT":"-0.00000377","ARG_OF_PERICENTER":"93.3271","CLASSIFICATION_TYPE":"U","GP_ID":"230661435","BSTAR":"-0.00000560670000","NORAD_CAT_ID":"52367","CENTER_NAME":"EARTH","ECCENTRICITY":"0.00013600","OBJECT_ID":"2022-045AN","DECAY_DATE":null,"OBJECT_TYPE":"PAYLOAD","APOAPSIS":"540.710","RA_OF_ASC_NODE":"228.1599","SEMIMAJOR_AXIS":"6917.904"},{"LAUNCH_DATE":"2022-04-29","COUNTRY_CODE":"US","RCS_SIZE":"LARGE","ELEMENT_SET_NO":"999","TLE_LINE2":"2 52368  53.2146 228.2417 0001126  97.4651 262.6469 15.08833855 57211","EPOCH":"2023-04-23T11:12:52.178112","REF_FRAME":"TEME","REV_AT_EPOCH":"5721","TIME_SYSTEM":"UTC","MEAN_ELEMENT_THEORY":"SGP4","MEAN_MOTION":"15.08833855","PERIOD":"95.438","FILE":"3892831","OBJECT_NAME":"STARLINK-3834","EPHEMERIS_TYPE":"0","MEAN_MOTION_DDOT":"0.0000000000000","PERIAPSIS":"538.985","MEAN_ANOMALY":"262.6469","TLE_LINE1":"1 52368U 22045AP  23113.46727058  .00000439  00000-0  45666-4 0  9993","INCLINATION":"53.2146","SITE":"AFETR","OBJECT_ID":"2022-045AP","DECAY_DATE":null,"APOAPSIS":"540.543","OBJECT_TYPE":"PAYLOAD","RA_OF_ASC_NODE":"228.2417","SEMIMAJOR_AXIS":"6917.899","MEAN_MOTION_DOT":"0.00000439","ARG_OF_PERICENTER":"97.4651","GP_ID":"230660688","CLASSIFICATION_TYPE":"U","BSTAR":"0.00004566600000","ECCENTRICITY":"0.00011260","CENTER_NAME":"EARTH","NORAD_CAT_ID":"52368"},{"CLASSIFICATION_TYPE":"U","GP_ID":"230660439","MEAN_MOTION_DOT":"-0.00000396","ARG_OF_PERICENTER":"102.2727","NORAD_CAT_ID":"52369","CENTER_NAME":"EARTH","ECCENTRICITY":"0.00016130","BSTAR":"-0.00000680260000","OBJECT_TYPE":"PAYLOAD","APOAPSIS":"540.871","DECAY_DATE":null,"OBJECT_ID":"2022-045AQ","SEMIMAJOR_AXIS":"6917.890","RA_OF_ASC_NODE":"228.1715","MEAN_MOTION_DDOT":"0.0000000000000","OBJECT_NAME":"STARLINK-3841","FILE":"3892831","EPHEMERIS_TYPE":"0","TLE_LINE1":"1 52369U 22045AQ  23113.48199218 -.00000396  00000-0 -68026-5 0  9997","SITE":"AFETR","INCLINATION":"53.2154","MEAN_ANOMALY":"257.8446","PERIAPSIS":"538.639","PERIOD":"95.438","MEAN_MOTION":"15.08836963","MEAN_ELEMENT_THEORY":"SGP4","TIME_SYSTEM":"UTC","REV_AT_EPOCH":"5722","TLE_LINE2":"2 52369  53.2154 228.1715 0001613 102.2727 257.8446 15.08836963 57226","EPOCH":"2023-04-23T11:34:04.124352","ELEMENT_SET_NO":"999","REF_FRAME":"TEME","COUNTRY_CODE":"US","LAUNCH_DATE":"2022-04-29","RCS_SIZE":"LARGE"},{"REF_FRAME":"TEME","TLE_LINE2":"2 52370  53.2155 226.7270 0000861 174.7659 185.3343 15.08846763 57276","EPOCH":"2023-04-23T19:21:45.840384","ELEMENT_SET_NO":"999","RCS_SIZE":"LARGE","COUNTRY_CODE":"US","LAUNCH_DATE":"2022-04-29","MEAN_ELEMENT_THEORY":"SGP4","REV_AT_EPOCH":"5727","TIME_SYSTEM":"UTC","PERIAPSIS":"539.129","INCLINATION":"53.2155","TLE_LINE1":"1 52370U 22045AR  23113.80678056  .00003566  00000-0  24196-3 0  9995","SITE":"AFETR","MEAN_ANOMALY":"185.3343","OBJECT_NAME":"STARLINK-3827","FILE":"3892831","EPHEMERIS_TYPE":"0","MEAN_MOTION_DDOT":"0.0000000000000","MEAN_MOTION":"15.08846763","PERIOD":"95.437","BSTAR":"0.00024196000000","NORAD_CAT_ID":"52370","CENTER_NAME":"EARTH","ECCENTRICITY":"0.00008610","MEAN_MOTION_DOT":"0.00003566","ARG_OF_PERICENTER":"174.7659","CLASSIFICATION_TYPE":"U","GP_ID":"230661690","RA_OF_ASC_NODE":"226.7270","SEMIMAJOR_AXIS":"6917.860","DECAY_DATE":null,"OBJECT_ID":"2022-045AR","OBJECT_TYPE":"PAYLOAD","APOAPSIS":"540.320"},{"PERIAPSIS":"538.730","MEAN_ANOMALY":"266.5918","TLE_LINE1":"1 52371U 22045AS  23113.73686990  .00016654  00000-0  10618-2 0  9999","INCLINATION":"53.2150","SITE":"AFETR","FILE":"3892831","EPHEMERIS_TYPE":"0","OBJECT_NAME":"STARLINK-3798","MEAN_MOTION_DDOT":"0.0000000000000","MEAN_MOTION":"15.08847545","PERIOD":"95.437","BSTAR":"0.00106180000000","CENTER_NAME":"EARTH","ECCENTRICITY":"0.00014350","NORAD_CAT_ID":"52371","ARG_OF_PERICENTER":"93.5238","MEAN_MOTION_DOT":"0.00016654","GP_ID":"230661936","CLASSIFICATION_TYPE":"U","RA_OF_ASC_NODE":"227.0397","SEMIMAJOR_AXIS":"6917.857","DECAY_DATE":null,"OBJECT_ID":"2022-045AS","APOAPSIS":"540.715","OBJECT_TYPE":"PAYLOAD","REF_FRAME":"TEME","ELEMENT_SET_NO":"999","EPOCH":"2023-04-23T17:41:05.559360","TLE_LINE2":"2 52371  53.2150 227.0397 0001435  93.5238 266.5918 15.08847545 57252","RCS_SIZE":"LARGE","LAUNCH_DATE":"2022-04-29","COUNTRY_CODE":"US","MEAN_ELEMENT_THEORY":"SGP4","REV_AT_EPOCH":"5725","TIME_SYSTEM":"UTC"},{"TIME_SYSTEM":"UTC","REV_AT_EPOCH":"5721","MEAN_ELEMENT_THEORY":"SGP4","RCS_SIZE":"LARGE","LAUNCH_DATE":"2022-04-29","COUNTRY_CODE":"US","REF_FRAME":"TEME","EPOCH":"2023-04-23T11:07:34.220928","TLE_LINE2":"2 52372  53.2150 228.2583 0001379  85.3841 274.7308 15.08844447 57217","ELEMENT_SET_NO":"999","SEMIMAJOR_AXIS":"6917.867","RA_OF_ASC_NODE":"228.2583","OBJECT_TYPE":"PAYLOAD","APOAPSIS":"540.686","DECAY_DATE":null,"OBJECT_ID":"2022-045AT","NORAD_CAT_ID":"52372","CENTER_NAME":"EARTH","ECCENTRICITY":"0.00013790","BSTAR":"0.00042926000000","CLASSIFICATION_TYPE":"U","GP_ID":"230660189","MEAN_MOTION_DOT":"0.00006551","ARG_OF_PERICENTER":"85.3841","PERIOD":"95.437","MEAN_MOTION":"15.08844447","SITE":"AFETR","TLE_LINE1":"1 52372U 22045AT  23113.46359052  .00006551  00000-0  42926-3 0  9999","INCLINATION":"53.2150","MEAN_ANOMALY":"274.7308","PERIAPSIS":"538.778","MEAN_MOTION_DDOT":"0.0000000000000","FILE":"3892831","EPHEMERIS_TYPE":"0","OBJECT_NAME":"STARLINK-3796"}];
